[{"OBJECT_NAME":"STARLINK-5344","OBJECT_ID":"2023-015AX","EPOCH":"2026-03-09T22:00:01.999584","MEAN_MOTION":15.10994868,"ECCENTRICITY":0.00016686,"INCLINATION":42.9995,"RA_OF_ASC_NODE":337.1804,"ARG_OF_PERICENTER":251.7021,"MEAN_ANOMALY":145.4845,"EPHEMERIS_TYPE":0,"CLASSIFICATION_TYPE":"U","NORAD_CAT_ID":55494,"ELEMENT_SET_NO":999,"REV_AT_EPOCH":577,"BSTAR":0.00071850787,"MEAN_MOTION_DOT":0.00012008,"MEAN_MOTION_DDOT":0},{"OBJECT_NAME":"PIESAT-2 12","OBJECT_ID":"2024-241D","EPOCH":"2026-03-07T12:51:59.071104","MEAN_MOTION":15.13473962,"ECCENTRICITY":0.0001617,"INCLINATION":97.5188,"RA_OF_ASC_NODE":15.2831,"ARG_OF_PERICENTER":92.1579,"MEAN_ANOMALY":267.9837,"EPHEMERIS_TYPE":0,"CLASSIFICATION_TYPE":"U","NORAD_CAT_ID":62336,"ELEMENT_SET_NO":999,"REV_AT_EPOCH":6742,"BSTAR":0.00074906088,"MEAN_MOTION_DOT":0.00013349,"MEAN_MOTION_DDOT":0}]
